[{"OBJECT_NAME":"ARCSTONE","OBJECT_ID":"2025-135N","EPOCH":"2026-03-09T21:21:29.017152","MEAN_MOTION":15.28638458,"ECCENTRICITY":0.00041199,"INCLINATION":97.4495,"RA_OF_ASC_NODE":185.9194,"ARG_OF_PERICENTER":166.7863,"MEAN_ANOMALY":193.3485,"EPHEMERIS_TYPE":0,"CLASSIFICATION_TYPE":"U","NORAD_CAT_ID":64540,"ELEMENT_SET_NO":999,"REV_AT_EPOCH":3984,"BSTAR":0.00094899777,"MEAN_MOTION_DOT":0.00026427,"MEAN_MOTION_DDOT":0},{"OBJECT_NAME":"STARLINK-34611","OBJECT_ID":"2025-157Q","EPOCH":"2026-03-09T23:26:11.575968","MEAN_MOTION":15.30208026,"ECCENTRICITY":0.0001126,"INCLINATION":53.1588,"RA_OF_ASC_NODE":344.6285,"ARG_OF_PERICENTER":128.4729,"MEAN_ANOMALY":231.6373,"EPHEMERIS_TYPE":0,"CLASSIFICATION_TYPE":"U","NORAD_CAT_ID":64918,"ELEMENT_SET_NO":999,"REV_AT_EPOCH":3616,"BSTAR":0.0010912169,"MEAN_MOTION_DOT":0.00032107,"MEAN_MOTION_DDOT":0}]
